{
  "type": "FeatureCollection",
  "features": [
    {
      "type": "Feature",
      "properties": {
        "norad_id": 33986,
        "name": "COSMOS 2251 DEB",
        "group": "cosmos-2251-debris",
        "lat": -68.79711367557772,
        "lon": -176.29382056904444,
        "alt_km": 775.0977049844232,
        "timestamp": "2025-12-05T11:32:56.410482+00:00",
        "meta_object_name": "COSMOS 2251 DEB",
        "meta_object_id": "1993-036FV",
        "meta_epoch": "2025-12-04T16:53:59.252928",
        "meta_mean_motion": 14.43138264,
        "meta_eccentricity": 0.0040059,
        "meta_inclination": 74.0363,
        "meta_ra_of_asc_node": 317.5979,
        "meta_arg_of_pericenter": 32.2769,
        "meta_mean_anomaly": 148.5039,
        "meta_ephemeris_type": 0,
        "meta_classification_type": "U",
        "meta_norad_cat_id": 33986,
        "meta_element_set_no": 999,
        "meta_rev_at_epoch": 87912,
        "meta_bstar": 0.001577,
        "meta_mean_motion_dot": 5.325e-05,
        "meta_mean_motion_ddot": 0,
        "tle_line1": "1 33986U 93036FV  25338.70415802  .00005325  00000+0  15770-2 0  9994",
        "tle_line2": "2 33986  74.0363 317.5979 0040059  32.2769 148.5039 14.43138264879125"
      },
      "geometry": {
        "type": "Point",
        "coordinates": [
          -176.29382056904444,
          -68.79711367557772
        ]
      }
    },
    {
      "type": "Feature",
      "properties": {
        "norad_id": 33990,
        "name": "COSMOS 2251 DEB",
        "group": "cosmos-2251-debris",
        "lat": -34.23933826450147,
        "lon": 128.96297611219123,
        "alt_km": 1137.3083530413032,
        "timestamp": "2025-12-05T11:32:56.410492+00:00",
        "meta_object_name": "COSMOS 2251 DEB",
        "meta_object_id": "1993-036FZ",
        "meta_epoch": "2025-12-04T15:45:34.818336",
        "meta_mean_motion": 13.49953675,
        "meta_eccentricity": 0.0407626,
        "meta_inclination": 73.9282,
        "meta_ra_of_asc_node": 298.9712,
        "meta_arg_of_pericenter": 320.7308,
        "meta_mean_anomaly": 213.8575,
        "meta_ephemeris_type": 0,
        "meta_classification_type": "U",
        "meta_norad_cat_id": 33990,
        "meta_element_set_no": 999,
        "meta_rev_at_epoch": 82620,
        "meta_bstar": 0.0029528,
        "meta_mean_motion_dot": 3.122e-05,
        "meta_mean_motion_ddot": 0,
        "tle_line1": "1 33990U 93036FZ  25338.65665299  .00003122  00000+0  29528-2 0  9999",
        "tle_line2": "2 33990  73.9282 298.9712 0407626 320.7308 213.8575 13.49953675826204"
      },
      "geometry": {
        "type": "Point",
        "coordinates": [
          128.96297611219123,
          -34.23933826450147
        ]
      }
    },
    {
      "type": "Feature",
      "properties": {
        "norad_id": 33992,
        "name": "COSMOS 2251 DEB",
        "group": "cosmos-2251-debris",
        "lat": -49.0527080259848,
        "lon": -168.98288328597172,
        "alt_km": 697.9024487687702,
        "timestamp": "2025-12-05T11:32:56.410503+00:00",
        "meta_object_name": "COSMOS 2251 DEB",
        "meta_object_id": "1993-036GB",
        "meta_epoch": "2025-12-04T12:15:56.822112",
        "meta_mean_motion": 14.66115223,
        "meta_eccentricity": 0.0051691,
        "meta_inclination": 74.0239,
        "meta_ra_of_asc_node": 353.6077,
        "meta_arg_of_pericenter": 114.0793,
        "meta_mean_anomaly": 38.815,
        "meta_ephemeris_type": 0,
        "meta_classification_type": "U",
        "meta_norad_cat_id": 33992,
        "meta_element_set_no": 999,
        "meta_rev_at_epoch": 89004,
        "meta_bstar": 0.0016156,
        "meta_mean_motion_dot": 9.034e-05,
        "meta_mean_motion_ddot": 0,
        "tle_line1": "1 33992U 93036GB  25338.51107433  .00009034  00000+0  16156-2 0  9998",
        "tle_line2": "2 33992  74.0239 353.6077 0051691 114.0793  38.8150 14.66115223890048"
      },
      "geometry": {
        "type": "Point",
        "coordinates": [
          -168.98288328597172,
          -49.0527080259848
        ]
      }
    },
    {
      "type": "Feature",
      "properties": {
        "norad_id": 33994,
        "name": "COSMOS 2251 DEB",
        "group": "cosmos-2251-debris",
        "lat": 68.63023242509672,
        "lon": -109.16699718299563,
        "alt_km": 749.2415980907881,
        "timestamp": "2025-12-05T11:32:56.410513+00:00",
        "meta_object_name": "COSMOS 2251 DEB",
        "meta_object_id": "1993-036GD",
        "meta_epoch": "2025-12-04T17:10:05.808000",
        "meta_mean_motion": 14.41207299,
        "meta_eccentricity": 0.0023351,
        "meta_inclination": 74.0425,
        "meta_ra_of_asc_node": 205.2585,
        "meta_arg_of_pericenter": 341.0624,
        "meta_mean_anomaly": 82.3462,
        "meta_ephemeris_type": 0,
        "meta_classification_type": "U",
        "meta_norad_cat_id": 33994,
        "meta_element_set_no": 999,
        "meta_rev_at_epoch": 88304,
        "meta_bstar": 0.00016976,
        "meta_mean_motion_dot": 5.23e-06,
        "meta_mean_motion_ddot": 0,
        "tle_line1": "1 33994U 93036GD  25338.71534500  .00000523  00000+0  16976-3 0  9996",
        "tle_line2": "2 33994  74.0425 205.2585 0023351 341.0624  82.3462 14.41207299883040"
      },
      "geometry": {
        "type": "Point",
        "coordinates": [
          -109.16699718299563,
          68.63023242509672
        ]
      }
    },
    {
      "type": "Feature",
      "properties": {
        "norad_id": 33995,
        "name": "COSMOS 2251 DEB",
        "group": "cosmos-2251-debris",
        "lat": -37.855616448070045,
        "lon": 119.79545077440171,
        "alt_km": 825.0790360049623,
        "timestamp": "2025-12-05T11:32:56.410523+00:00",
        "meta_object_name": "COSMOS 2251 DEB",
        "meta_object_id": "1993-036GE",
        "meta_epoch": "2025-12-04T13:58:48.597024",
        "meta_mean_motion": 14.34700139,
        "meta_eccentricity": 0.0060799,
        "meta_inclination": 74.0599,
        "meta_ra_of_asc_node": 134.2732,
        "meta_arg_of_pericenter": 150.8805,
        "meta_mean_anomaly": 209.5761,
        "meta_ephemeris_type": 0,
        "meta_classification_type": "U",
        "meta_norad_cat_id": 33995,
        "meta_element_set_no": 999,
        "meta_rev_at_epoch": 87402,
        "meta_bstar": 0.0021301,
        "meta_mean_motion_dot": 6.137e-05,
        "meta_mean_motion_ddot": 0,
        "tle_line1": "1 33995U 93036GE  25338.58250691  .00006137  00000+0  21301-2 0  9992",
        "tle_line2": "2 33995  74.0599 134.2732 0060799 150.8805 209.5761 14.34700139874028"
      },
      "geometry": {
        "type": "Point",
        "coordinates": [
          119.79545077440171,
          -37.855616448070045
        ]
      }
    },
    {
      "type": "Feature",
      "properties": {
        "norad_id": 33999,
        "name": "COSMOS 2251 DEB",
        "group": "cosmos-2251-debris",
        "lat": -62.88847498247168,
        "lon": -149.03987269368466,
        "alt_km": 653.1369595617898,
        "timestamp": "2025-12-05T11:32:56.410533+00:00",
        "meta_object_name": "COSMOS 2251 DEB",
        "meta_object_id": "1993-036GJ",
        "meta_epoch": "2025-12-04T03:28:42.818592",
        "meta_mean_motion": 14.83047577,
        "meta_eccentricity": 0.00446928,
        "meta_inclination": 73.9204,
        "meta_ra_of_asc_node": 247.9131,
        "meta_arg_of_pericenter": 145.9591,
        "meta_mean_anomaly": 214.4468,
        "meta_ephemeris_type": 0,
        "meta_classification_type": "U",
        "meta_norad_cat_id": 33999,
        "meta_element_set_no": 999,
        "meta_rev_at_epoch": 89123,
        "meta_bstar": 0.003158532,
        "meta_mean_motion_dot": 0.00026221,
        "meta_mean_motion_ddot": 0,
        "tle_line1": "1 33999U 93036GJ  25338.14494003  .00026221  00000+0  31585-2 0  9996",
        "tle_line2": "2 33999  73.9204 247.9131 0044692 145.9591 214.4468 14.83047577891234"
      },
      "geometry": {
        "type": "Point",
        "coordinates": [
          -149.03987269368466,
          -62.88847498247168
        ]
      }
    },
    {
      "type": "Feature",
      "properties": {
        "norad_id": 34001,
        "name": "COSMOS 2251 DEB",
        "group": "cosmos-2251-debris",
        "lat": 50.908649388765376,
        "lon": -44.437839654468256,
        "alt_km": 751.8017488817841,
        "timestamp": "2025-12-05T11:32:56.410542+00:00",
        "meta_object_name": "COSMOS 2251 DEB",
        "meta_object_id": "1993-036GL",
        "meta_epoch": "2025-12-04T14:08:15.578016",
        "meta_mean_motion": 14.37081811,
        "meta_eccentricity": 0.001958,
        "meta_inclination": 74.0383,
        "meta_ra_of_asc_node": 296.5747,
        "meta_arg_of_pericenter": 19.542,
        "meta_mean_anomaly": 100.599,
        "meta_ephemeris_type": 0,
        "meta_classification_type": "U",
        "meta_norad_cat_id": 34001,
        "meta_element_set_no": 999,
        "meta_rev_at_epoch": 88029,
        "meta_bstar": 0.00039484,
        "meta_mean_motion_dot": 1.149e-05,
        "meta_mean_motion_ddot": 0,
        "tle_line1": "1 34001U 93036GL  25338.58906919  .00001149  00000+0  39484-3 0  9992",
        "tle_line2": "2 34001  74.0383 296.5747 0019580  19.5420 100.5990 14.37081811880294"
      },
      "geometry": {
        "type": "Point",
        "coordinates": [
          -44.437839654468256,
          50.908649388765376
        ]
      }
    }
  ]
}